KAZSTSAT                
1 43783U 18099AB  26165.09534198  .00001392  00000+0  11678-3 0  9991
2 43783  97.4265 197.1643 0008334  77.8694 282.3463 14.99857659410848
SAUDISAT 5A             
1 43831U 18102A   26165.21796135  .00005419  00000+0  20064-3 0  9998
2 43831  97.3074 226.8558 0010834 138.2108 221.9961 15.28020481415221
SAUDISAT 5B             
1 43833U 18102C   26165.17183023  .00005526  00000+0  20290-3 0  9991
2 43833  97.3181 229.8748 0011482 140.7400 219.4675 15.28278755415334
GAOFEN-10R              
1 44622U 19066A   26165.18515097  .00001065  00000+0  13761-3 0  9998
2 44622  98.0497 118.7426 0006490 135.7777 224.3956 14.83054858361931
CARTOSAT-3              
1 44804U 19081A   26165.19349449  .00004547  00000+0  21843-3 0  9992
2 44804  97.4312 227.1079 0012931 158.4553 201.7229 15.19262709363011
GAOFEN-12 01            
1 44819U 19082A   26165.17343492  .00000350  00000+0  52437-4 0  9991
2 44819  97.8100 171.6324 0002360  74.1088 286.0384 14.80456359353643
CSG-1                   
1 44873U 19092A   26165.21590036  .00000395  00000+0  56219-4 0  9996
2 44873  97.8888 348.8615 0001467  89.0851 271.0530 14.82150943351037
NEMO-HD                 
1 46277U 20061F   26165.14962535  .00011189  00000+0  24286-3 0  9994
2 46277  97.1926 227.1330 0002409  84.6703 275.4820 15.44539578321514
SENTINEL-6A             
1 46984U 20086A   26165.19667400 -.00000060  00000+0  46390-5 0  9993
2 46984  66.0392 141.2637 0007952 270.2700  89.7404 12.80929969259940
CAS500-1                
1 47932U 21022A   26165.16677292  .00006707  00000+0  31279-3 0  9996
2 47932  97.3912  60.4817 0003976 317.1059  42.9865 15.20178770290301
GAOFEN-12 02            
1 48079U 21026A   26165.25176595  .00000328  00000+0  49963-4 0  9996
2 48079  97.9928 163.4443 0003517 234.2611 125.8274 14.80294087281322
PLEIADES NEO 3          
1 48268U 21034A   26165.21418440  .00000508  00000+0  71164-4 0  9997
2 48268  97.8936 240.0234 0001348  88.1238 272.0129 14.81666823277210
PLEIADES NEO 4          
1 49070U 21073E   26165.18041282  .00001504  00000+0  19762-3 0  9996
2 49070  97.8941 239.9857 0001401  87.8873 272.2500 14.81685918260928
LANDSAT 9               
1 49260U 21088A   26165.17503140  .00000288  00000+0  74138-4 0  9995
2 49260  98.2281 235.3889 0001428  85.5211 274.6150 14.57095086250566
CSG-2                   
1 51444U 22008A   26165.18213466 -.00000147  00000+0 -11901-4 0  9990
2 51444  97.8881 348.8234 0001417  83.9439 276.1936 14.82152300236148
GAOFEN-12 03            
1 52912U 22069A   26165.21354565  .00000949  00000+0  13211-3 0  9991
2 52912  97.8292  53.1594 0001930 104.4664 255.6762 14.80031244214178
SWOT                    
1 54754U 22173A   26165.20153638  .00000071  00000+0  49883-4 0  9991
2 54754  77.6108  39.3407 0000246  95.2262 264.8918 14.00169286178731
GAOFEN-12 04            
1 57654U 23123A   26165.16301909  .00000929  00000+0  12892-3 0  9991
2 57654  97.9127  83.2242 0001790  84.4797 275.6619 14.80223656152181
PARS 1                  
1 59065U 24039Q   26165.20709943  .00010498  00000+0  21906-3 0  9999
2 59065  97.4814 146.0329 0011344 120.6863 239.5505 15.45668717128183
RESURS-P 4              
1 59371U 24061A   26165.19353573  .00002871  00000+0  95070-4 0  9996
2 59371  97.2753 113.1445 0001941 129.6836 230.4578 15.32115694123304
LEGION 1                
1 59625U 24081A   26165.19209512  .00003404  00000+0  17728-3 0  9999
2 59625  97.5022 243.0807 0009818  27.9335 332.2423 15.16648510117086
LEGION 2                
1 59626U 24081B   26165.15605715  .00004201  00000+0  21803-3 0  9996
2 59626  97.5023 243.1427 0011055 354.7592   5.3524 15.16628094117084
ALOS-4 (DAICHI-4)       
1 60182U 24123A   26165.18266946  .00001344  00000+0  18686-3 0  9994
2 60182  97.9244 262.3985 0001582  97.9727 262.1664 14.79470596105438
LEGION 3                
1 60452U 24146A   26165.09985568  .00003595  00000+0  19730-3 0  9998
2 60452  45.0025  47.1126 0007291 152.0320 208.0952 15.16018448101554
LEGION 4                
1 60453U 24146B   26165.23470983  .00003294  00000+0  18178-3 0  9996
2 60453  44.9996 138.2995 0014009 292.9386  67.0014 15.16009855100426
SENTINEL-2C             
1 60989U 24157A   26165.16555197  .00000089  00000+0  50695-4 0  9995
2 60989  98.5692 239.9902 0001068  80.2378 279.8926 14.30817015 92554
IONOSFERA-M 1           
1 61735U 24199A   26165.16977647  .00000055  00000+0  44370-4 0  9995
2 61735  98.7177  38.3738 0001869 114.3382 245.7992 14.22753765127270
IONOSFERA-M 2           
1 61736U 24199B   26165.20407902  .00000059  00000+0  46030-4 0  9992
2 61736  98.7176  38.3184 0001175  41.7372 318.3896 14.22757042130408
PRSC-EO1                
1 62725U 25012A   26165.22468282  .00007137  00000+0  35684-3 0  9992
2 62725  97.4232 237.7423 0004325 264.4131  95.6610 15.17735829 77744
BIOMASS                 
1 63772U 25090A   26165.10165917  .00000924  00000+0  17144-3 0  9995
2 63772  98.0742 352.4636 0001354  91.3040 268.8319 14.67539139 60232
GOSAT-GW (IBUKI GW)     
1 64694U 25141A   26165.19016338  .00000549  00000+0  10519-3 0  9999
2 64694  98.0569 102.5559 0001432  84.1838 275.9529 14.67551831 51407
