OBJECT_NAME,OBJECT_ID,EPOCH,MEAN_MOTION,ECCENTRICITY,INCLINATION,RA_OF_ASC_NODE,ARG_OF_PERICENTER,MEAN_ANOMALY,EPHEMERIS_TYPE,CLASSIFICATION_TYPE,NORAD_CAT_ID,ELEMENT_SET_NO,REV_AT_EPOCH,BSTAR,MEAN_MOTION_DOT,MEAN_MOTION_DDOT
KAZSTSAT,2018-099AB,2026-06-14T02:17:17.547072,14.99857659,.0008334,97.4265,197.1643,77.8694,282.3463,0,U,43783,999,41084,.11678E-3,.1392E-4,0
SAUDISAT 5A,2018-102A,2026-06-14T05:13:51.860640,15.28020481,.0010834,97.3074,226.8558,138.2108,221.9961,0,U,43831,999,41522,.20064E-3,.5419E-4,0
SAUDISAT 5B,2018-102C,2026-06-14T04:07:26.131872,15.28278755,.0011482,97.3181,229.8748,140.7400,219.4675,0,U,43833,999,41533,.2029E-3,.5526E-4,0
GAOFEN-10R,2019-066A,2026-06-14T04:26:37.043808,14.83054858,.000649,98.0497,118.7426,135.7777,224.3956,0,U,44622,999,36193,.13761E-3,.1065E-4,0
CARTOSAT-3,2019-081A,2026-06-14T04:38:37.923936,15.19262709,.0012931,97.4312,227.1079,158.4553,201.7229,0,U,44804,999,36301,.21843E-3,.4547E-4,0
GAOFEN-12 01,2019-082A,2026-06-14T04:09:44.777088,14.80456359,.000236,97.8100,171.6324,74.1088,286.0384,0,U,44819,999,35364,.52437E-4,.35E-5,0
CSG-1,2019-092A,2026-06-14T05:10:53.791104,14.82150943,.0001467,97.8888,348.8615,89.0851,271.0530,0,U,44873,999,35103,.56219E-4,.395E-5,0
NEMO-HD,2020-061F,2026-06-14T03:35:27.630240,15.44539578,.0002409,97.1926,227.1330,84.6703,275.4820,0,U,46277,999,32151,.24286E-3,.11189E-3,0
SENTINEL-6A,2020-086A,2026-06-14T04:43:12.633600,12.80929969,.0007952,66.0392,141.2637,270.2700,89.7404,0,U,46984,999,25994,.4639E-5,-.6E-6,0
CAS500-1,2021-022A,2026-06-14T04:00:09.180288,15.20178770,.0003976,97.3912,60.4817,317.1059,42.9865,0,U,47932,999,29030,.31279E-3,.6707E-4,0
GAOFEN-12 02,2021-026A,2026-06-14T06:02:32.578080,14.80294087,.0003517,97.9928,163.4443,234.2611,125.8274,0,U,48079,999,28132,.49963E-4,.328E-5,0
PLEIADES NEO 3,2021-034A,2026-06-14T05:08:25.532160,14.81666823,.0001348,97.8936,240.0234,88.1238,272.0129,0,U,48268,999,27721,.71164E-4,.508E-5,0
PLEIADES NEO 4,2021-073E,2026-06-14T04:19:47.667648,14.81685918,.0001401,97.8941,239.9857,87.8873,272.2500,0,U,49070,999,26092,.19762E-3,.1504E-4,0
LANDSAT 9,2021-088A,2026-06-14T04:12:02.712960,14.57095086,.0001428,98.2281,235.3889,85.5211,274.6150,0,U,49260,999,25056,.74138E-4,.288E-5,0
CSG-2,2022-008A,2026-06-14T04:22:16.434624,14.82152300,.0001417,97.8881,348.8234,83.9439,276.1936,0,U,51444,999,23614,-.11901E-4,-.147E-5,0
GAOFEN-12 03,2022-069A,2026-06-14T05:07:30.344160,14.80031244,.000193,97.8292,53.1594,104.4664,255.6762,0,U,52912,999,21417,.13211E-3,.949E-5,0
SWOT,2022-173A,2026-06-14T04:50:12.743232,14.00169286,.0000246,77.6108,39.3407,95.2262,264.8918,0,U,54754,999,17873,.49883E-4,.71E-6,0
GAOFEN-12 04,2023-123A,2026-06-14T03:54:44.849376,14.80223656,.000179,97.9127,83.2242,84.4797,275.6619,0,U,57654,999,15218,.12892E-3,.929E-5,0
PARS 1,2024-039Q,2026-06-14T04:58:13.390752,15.45668717,.0011344,97.4814,146.0329,120.6863,239.5505,0,U,59065,999,12818,.21906E-3,.10498E-3,0
RESURS-P 4,2024-061A,2026-06-14T04:38:41.487072,15.32115694,.0001941,97.2753,113.1445,129.6836,230.4578,0,U,59371,999,12330,.9507E-4,.2871E-4,0
LEGION 1,2024-081A,2026-06-14T04:36:37.018368,15.16648510,.0009818,97.5022,243.0807,27.9335,332.2423,0,U,59625,999,11708,.17728E-3,.3404E-4,0
LEGION 2,2024-081B,2026-06-14T03:44:43.337760,15.16628094,.0011055,97.5023,243.1427,354.7592,5.3524,0,U,59626,999,11708,.21803E-3,.4201E-4,0
ALOS-4 (DAICHI-4),2024-123A,2026-06-14T04:23:02.641344,14.79470596,.0001582,97.9244,262.3985,97.9727,262.1664,0,U,60182,999,10543,.18686E-3,.1344E-4,0
LEGION 3,2024-146A,2026-06-14T02:23:47.530752,15.16018448,.0007291,45.0025,47.1126,152.0320,208.0952,0,U,60452,999,10155,.1973E-3,.3595E-4,0
LEGION 4,2024-146B,2026-06-14T05:37:58.929312,15.16009855,.0014009,44.9996,138.2995,292.9386,67.0014,0,U,60453,999,10042,.18178E-3,.3294E-4,0
SENTINEL-2C,2024-157A,2026-06-14T03:58:23.690208,14.30817015,.0001068,98.5692,239.9902,80.2378,279.8926,0,U,60989,999,9255,.50695E-4,.89E-6,0
IONOSFERA-M 1,2024-199A,2026-06-14T04:04:28.687008,14.22753765,.0001869,98.7177,38.3738,114.3382,245.7992,0,U,61735,999,12727,.4437E-4,.55E-6,0
IONOSFERA-M 2,2024-199B,2026-06-14T04:53:52.427328,14.22757042,.0001175,98.7176,38.3184,41.7372,318.3896,0,U,61736,999,13040,.4603E-4,.59E-6,0
PRSC-EO1,2025-012A,2026-06-14T05:23:32.595648,15.17735829,.0004325,97.4232,237.7423,264.4131,95.6610,0,U,62725,999,7774,.35684E-3,.7137E-4,0
BIOMASS,2025-090A,2026-06-14T02:26:23.352288,14.67539139,.0001354,98.0742,352.4636,91.3040,268.8319,0,U,63772,999,6023,.17144E-3,.924E-5,0
GOSAT-GW (IBUKI GW),2025-141A,2026-06-14T04:33:50.116032,14.67551831,.0001432,98.0569,102.5559,84.1838,275.9529,0,U,64694,999,5140,.10519E-3,.549E-5,0
